{"fetched_at":"2026-03-29T02:12:04Z","count":15717,"tles":[{"name":"GPS BIIF-8  (PRN 03)","line1":"1 40294U 14068A   26086.65813022 -.00000070  00000+0  00000+0 0  9993","line2":"2 40294  56.9354  34.0960 0063895  68.2397 292.4250  2.00571381 83575","category":"GPS"}]}